{"type": "FeatureCollection", "features": [ {"type": "Feature", "properties": {"norad_id": 39155, "name": "COSMOS 2485 (747)", "group": "glo-ops", "lat": 52.0694509688747, "lon": -136.06057033726142, "alt_km": 19144.7343053452, "timestamp": "2025-12-07T14:37:05.465915+00:00", "meta": {"OBJECT_NAME": "COSMOS 2485 (747)", "OBJECT_ID": "2013-019A", "EPOCH": "2025-12-05T02:32:45.729312", "MEAN_MOTION": 2.13102875, "ECCENTRICITY": 0.00246247, "INCLINATION": 65.3094, "RA_OF_ASC_NODE": 80.124, "ARG_OF_PERICENTER": 229.2984, "MEAN_ANOMALY": 130.4888, "EPHEMERIS_TYPE": 0, "CLASSIFICATION_TYPE": "U", "NORAD_CAT_ID": 39155, "ELEMENT_SET_NO": 999, "REV_AT_EPOCH": 9814, "BSTAR": 0, "MEAN_MOTION_DOT": -2.1e-07, "MEAN_MOTION_DDOT": 0}, "tle": {"line1": "1 39155U 13019A   25339.10608483 -.00000021  00000+0  00000+0 0  9991", "line2": "2 39155  65.3094  80.1240 0024624 229.2984 130.4888  2.13102875 98144"}}, "geometry": {"type": "Point", "coordinates": [-136.06057033726142, 52.0694509688747]}}, {"type": "Feature", "properties": {"norad_id": 39620, "name": "COSMOS 2492 (754)", "group": "glo-ops", "lat": 25.400039945202302, "lon": 127.87597179069728, "alt_km": 19160.78790063277, "timestamp": "2025-12-07T14:37:05.465927+00:00", "meta": {"OBJECT_NAME": "COSMOS 2492 (754)", "OBJECT_ID": "2014-012A", "EPOCH": "2025-12-02T17:14:30.403680", "MEAN_MOTION": 2.13103072, "ECCENTRICITY": 0.00141646, "INCLINATION": 65.4134, "RA_OF_ASC_NODE": 320.6107, "ARG_OF_PERICENTER": 311.0276, "MEAN_ANOMALY": 48.8557, "EPHEMERIS_TYPE": 0, "CLASSIFICATION_TYPE": "U", "NORAD_CAT_ID": 39620, "ELEMENT_SET_NO": 999, "REV_AT_EPOCH": 9105, "BSTAR": 0, "MEAN_MOTION_DOT": -3.6e-07, "MEAN_MOTION_DDOT": 0}, "tle": {"line1": "1 39620U 14012A   25336.71840745 -.00000036  00000+0  00000+0 0  9991", "line2": "2 39620  65.4134 320.6107 0014164 311.0276  48.8557  2.13103072 91051"}}, "geometry": {"type": "Point", "coordinates": [127.87597179069728, 25.400039945202302]}}, {"type": "Feature", "properties": {"norad_id": 40001, "name": "COSMOS 2500 (755)", "group": "glo-ops", "lat": 17.917503141568194, "lon": -31.267260379065796, "alt_km": 19147.430482486718, "timestamp": "2025-12-07T14:37:05.465939+00:00", "meta": {"OBJECT_NAME": "COSMOS 2500 (755)", "OBJECT_ID": "2014-032A", "EPOCH": "2025-12-06T15:28:27.002208", "MEAN_MOTION": 2.13105861, "ECCENTRICITY": 0.00081882, "INCLINATION": 65.3469, "RA_OF_ASC_NODE": 320.24, "ARG_OF_PERICENTER": 219.2231, "MEAN_ANOMALY": 140.7117, "EPHEMERIS_TYPE": 0, "CLASSIFICATION_TYPE": "U", "NORAD_CAT_ID": 40001, "ELEMENT_SET_NO": 999, "REV_AT_EPOCH": 8935, "BSTAR": 0, "MEAN_MOTION_DOT": -4.9e-07, "MEAN_MOTION_DDOT": 0}, "tle": {"line1": "1 40001U 14032A   25340.64475697 -.00000049  00000+0  00000+0 0  9999", "line2": "2 40001  65.3469 320.2400 0008188 219.2231 140.7117  2.13105861 89359"}}, "geometry": {"type": "Point", "coordinates": [-31.267260379065796, 17.917503141568194]}}, {"type": "Feature", "properties": {"norad_id": 40315, "name": "COSMOS 2501 (702K)", "group": "glo-ops", "lat": -0.40653130151276623, "lon": 17.208868472873675, "alt_km": 19083.594572185808, "timestamp": "2025-12-07T14:37:05.465950+00:00", "meta": {"OBJECT_NAME": "COSMOS 2501 (702K)", "OBJECT_ID": "2014-075A", "EPOCH": "2025-12-04T02:08:01.213152", "MEAN_MOTION": 2.13101298, "ECCENTRICITY": 0.0020149, "INCLINATION": 63.6138, "RA_OF_ASC_NODE": 197.1248, "ARG_OF_PERICENTER": 204.6361, "MEAN_ANOMALY": 155.363, "EPHEMERIS_TYPE": 0, "CLASSIFICATION_TYPE": "U", "NORAD_CAT_ID": 40315, "ELEMENT_SET_NO": 999, "REV_AT_EPOCH": 8569, "BSTAR": 0, "MEAN_MOTION_DOT": 1.03e-06, "MEAN_MOTION_DDOT": 0}, "tle": {"line1": "1 40315U 14075A   25338.08890293  .00000103  00000+0  00000+0 0  9992", "line2": "2 40315  63.6138 197.1248 0020149 204.6361 155.3630  2.13101298 85690"}}, "geometry": {"type": "Point", "coordinates": [17.208868472873675, -0.40653130151276623]}}, {"type": "Feature", "properties": {"norad_id": 41330, "name": "COSMOS 2514 (751)", "group": "glo-ops", "lat": -11.588468714540355, "lon": 145.02203299093765, "alt_km": 19103.947498424233, "timestamp": "2025-12-07T14:37:05.465961+00:00", "meta": {"OBJECT_NAME": "COSMOS 2514 (751)", "OBJECT_ID": "2016-008A", "EPOCH": "2025-12-06T21:19:17.818752", "MEAN_MOTION": 2.13102518, "ECCENTRICITY": 0.00123323, "INCLINATION": 65.1372, "RA_OF_ASC_NODE": 319.6044, "ARG_OF_PERICENTER": 219.9906, "MEAN_ANOMALY": 139.9121, "EPHEMERIS_TYPE": 0, "CLASSIFICATION_TYPE": "U", "NORAD_CAT_ID": 41330, "ELEMENT_SET_NO": 999, "REV_AT_EPOCH": 7652, "BSTAR": 0, "MEAN_MOTION_DOT": -4.9e-07, "MEAN_MOTION_DDOT": 0}, "tle": {"line1": "1 41330U 16008A   25340.88840068 -.00000049  00000+0  00000+0 0  9994", "line2": "2 41330  65.1372 319.6044 0012332 219.9906 139.9121  2.13102518 76520"}}, "geometry": {"type": "Point", "coordinates": [145.02203299093765, -11.588468714540355]}}, {"type": "Feature", "properties": {"norad_id": 42939, "name": "COSMOS 2522 (752)", "group": "glo-ops", "lat": -37.93030043243938, "lon": 176.1297753429262, "alt_km": 19134.942345623596, "timestamp": "2025-12-07T14:37:05.465973+00:00", "meta": {"OBJECT_NAME": "COSMOS 2522 (752)", "OBJECT_ID": "2017-055A", "EPOCH": "2025-12-02T23:20:47.282208", "MEAN_MOTION": 2.1310185, "ECCENTRICITY": 0.00065327, "INCLINATION": 64.0758, "RA_OF_ASC_NODE": 198.5618, "ARG_OF_PERICENTER": 226.0683, "MEAN_ANOMALY": 133.9743, "EPHEMERIS_TYPE": 0, "CLASSIFICATION_TYPE": "U", "NORAD_CAT_ID": 42939, "ELEMENT_SET_NO": 999, "REV_AT_EPOCH": 6379, "BSTAR": 0, "MEAN_MOTION_DOT": 1.07e-06, "MEAN_MOTION_DDOT": 0}, "tle": {"line1": "1 42939U 17055A   25336.97276947  .00000107  00000+0  00000+0 0  9991", "line2": "2 42939  64.0758 198.5618 0006532 226.0683 133.9743  2.13101850 63796"}}, "geometry": {"type": "Point", "coordinates": [176.1297753429262, -37.93030043243938]}}, {"type": "Feature", "properties": {"norad_id": 43508, "name": "COSMOS 2527 (756)", "group": "glo-ops", "lat": -11.83310634772556, "lon": 74.82821936898657, "alt_km": 19143.854352732073, "timestamp": "2025-12-07T14:37:05.465984+00:00", "meta": {"OBJECT_NAME": "COSMOS 2527 (756)", "OBJECT_ID": "2018-053A", "EPOCH": "2025-12-04T19:27:07.624224", "MEAN_MOTION": 2.1310203, "ECCENTRICITY": 0.00086941, "INCLINATION": 65.4682, "RA_OF_ASC_NODE": 80.3968, "ARG_OF_PERICENTER": 224.6174, "MEAN_ANOMALY": 135.3122, "EPHEMERIS_TYPE": 0, "CLASSIFICATION_TYPE": "U", "NORAD_CAT_ID": 43508, "ELEMENT_SET_NO": 999, "REV_AT_EPOCH": 5813, "BSTAR": 0, "MEAN_MOTION_DOT": -2.1e-07, "MEAN_MOTION_DDOT": 0}, "tle": {"line1": "1 43508U 18053A   25338.81050491 -.00000021  00000+0  00000+0 0  9998", "line2": "2 43508  65.4682  80.3968 0008694 224.6174 135.3122  2.13102030 58136"}}, "geometry": {"type": "Point", "coordinates": [74.82821936898657, -11.83310634772556]}}, {"type": "Feature", "properties": {"norad_id": 43687, "name": "COSMOS 2529 (757)", "group": "glo-ops", "lat": -64.1912216635714, "lon": 114.04137056167127, "alt_km": 19118.75016863763, "timestamp": "2025-12-07T14:37:05.465995+00:00", "meta": {"OBJECT_NAME": "COSMOS 2529 (757)", "OBJECT_ID": "2018-086A", "EPOCH": "2025-12-03T00:44:36.468960", "MEAN_MOTION": 2.13101888, "ECCENTRICITY": 0.00072932, "INCLINATION": 64.2917, "RA_OF_ASC_NODE": 199.2166, "ARG_OF_PERICENTER": 254.4618, "MEAN_ANOMALY": 105.5545, "EPHEMERIS_TYPE": 0, "CLASSIFICATION_TYPE": "U", "NORAD_CAT_ID": 43687, "ELEMENT_SET_NO": 999, "REV_AT_EPOCH": 5510, "BSTAR": 0, "MEAN_MOTION_DOT": 1.06e-06, "MEAN_MOTION_DDOT": 0}, "tle": {"line1": "1 43687U 18086A   25337.03097765  .00000106  00000+0  00000+0 0  9993", "line2": "2 43687  64.2917 199.2166 0007293 254.4618 105.5545  2.13101888 55102"}}, "geometry": {"type": "Point", "coordinates": [114.04137056167127, -64.1912216635714]}}, {"type": "Feature", "properties": {"norad_id": 44299, "name": "COSMOS 2534 (758)", "group": "glo-ops", "lat": 40.93618153401204, "lon": -136.31641073347726, "alt_km": 19137.704295324118, "timestamp": "2025-12-07T14:37:05.466006+00:00", "meta": {"OBJECT_NAME": "COSMOS 2534 (758)", "OBJECT_ID": "2019-030A", "EPOCH": "2025-12-05T09:38:44.490912", "MEAN_MOTION": 2.13101983, "ECCENTRICITY": 0.00090311, "INCLINATION": 64.3653, "RA_OF_ASC_NODE": 199.1403, "ARG_OF_PERICENTER": 283.6175, "MEAN_ANOMALY": 229.7103, "EPHEMERIS_TYPE": 0, "CLASSIFICATION_TYPE": "U", "NORAD_CAT_ID": 44299, "ELEMENT_SET_NO": 999, "REV_AT_EPOCH": 5079, "BSTAR": 0, "MEAN_MOTION_DOT": 8.7e-07, "MEAN_MOTION_DDOT": 0}, "tle": {"line1": "1 44299U 19030A   25339.40190383  .00000087  00000+0  00000+0 0  9994", "line2": "2 44299  64.3653 199.1403 0009031 283.6175 229.7103  2.13101983 50792"}}, "geometry": {"type": "Point", "coordinates": [-136.31641073347726, 40.93618153401204]}}, {"type": "Feature", "properties": {"norad_id": 44850, "name": "COSMOS 2544 (759)", "group": "glo-ops", "lat": 26.57721515439766, "lon": 93.32742032107103, "alt_km": 19154.054611771215, "timestamp": "2025-12-07T14:37:05.466017+00:00", "meta": {"OBJECT_NAME": "COSMOS 2544 (759)", "OBJECT_ID": "2019-088A", "EPOCH": "2025-12-05T05:23:01.027680", "MEAN_MOTION": 2.1310179, "ECCENTRICITY": 0.00137742, "INCLINATION": 65.456, "RA_OF_ASC_NODE": 80.2099, "ARG_OF_PERICENTER": 249.0312, "MEAN_ANOMALY": 110.8229, "EPHEMERIS_TYPE": 0, "CLASSIFICATION_TYPE": "U", "NORAD_CAT_ID": 44850, "ELEMENT_SET_NO": 999, "REV_AT_EPOCH": 4658, "BSTAR": 0, "MEAN_MOTION_DOT": -2e-07, "MEAN_MOTION_DDOT": 0}, "tle": {"line1": "1 44850U 19088A   25339.22431745 -.00000020  00000+0  00000+0 0  9998", "line2": "2 44850  65.4560  80.2099 0013774 249.0312 110.8229  2.13101790 46580"}}, "geometry": {"type": "Point", "coordinates": [93.32742032107103, 26.57721515439766]}}]}